{
  "type": "FeatureCollection",
  "features": [
    {
      "type": "Feature",
      "properties": {
        "norad_id": 33805,
        "name": "COSMOS 2251 DEB",
        "group": "cosmos-2251-debris",
        "lat": -31.95925151706318,
        "lon": -67.45791113755378,
        "alt_km": 746.6185262610861,
        "timestamp": "2025-12-17T04:57:44.753606+00:00",
        "meta_object_name": "COSMOS 2251 DEB",
        "meta_object_id": "1993-036AW",
        "meta_epoch": "2025-12-16T22:31:44.969088",
        "meta_mean_motion": 14.57865366,
        "meta_eccentricity": 0.00600735,
        "meta_inclination": 74.031,
        "meta_ra_of_asc_node": 303.3428,
        "meta_arg_of_pericenter": 131.0611,
        "meta_mean_anomaly": 229.5767,
        "meta_ephemeris_type": 0,
        "meta_classification_type": "U",
        "meta_norad_cat_id": 33805,
        "meta_element_set_no": 999,
        "meta_rev_at_epoch": 89288,
        "meta_bstar": 0.00021377682,
        "meta_mean_motion_dot": 9.73e-06,
        "meta_mean_motion_ddot": 0,
        "tle_line1": "1 33805U 93036AW  25350.93871492  .00000973  00000+0  21378-3 0  9990",
        "tle_line2": "2 33805  74.0310 303.3428 0060073 131.0611 229.5767 14.57865366892882"
      },
      "geometry": {
        "type": "Point",
        "coordinates": [
          -67.45791113755378,
          -31.95925151706318
        ]
      }
    },
    {
      "type": "Feature",
      "properties": {
        "norad_id": 33811,
        "name": "COSMOS 2251 DEB",
        "group": "cosmos-2251-debris",
        "lat": -54.39733911382232,
        "lon": 137.285400583099,
        "alt_km": 572.2749988457936,
        "timestamp": "2025-12-17T04:57:44.753615+00:00",
        "meta_object_name": "COSMOS 2251 DEB",
        "meta_object_id": "1993-036BC",
        "meta_epoch": "2025-12-16T23:25:31.120032",
        "meta_mean_motion": 15.05395128,
        "meta_eccentricity": 0.00308811,
        "meta_inclination": 73.8375,
        "meta_ra_of_asc_node": 293.8694,
        "meta_arg_of_pericenter": 14.1794,
        "meta_mean_anomaly": 54.0321,
        "meta_ephemeris_type": 0,
        "meta_classification_type": "U",
        "meta_norad_cat_id": 33811,
        "meta_element_set_no": 999,
        "meta_rev_at_epoch": 90082,
        "meta_bstar": 0.0008461427,
        "meta_mean_motion_dot": 0.00012244,
        "meta_mean_motion_ddot": 0,
        "tle_line1": "1 33811U 93036BC  25350.97605463  .00012244  00000+0  84614-3 0  9990",
        "tle_line2": "2 33811  73.8375 293.8694 0030881  14.1794  54.0321 15.05395128900821"
      },
      "geometry": {
        "type": "Point",
        "coordinates": [
          137.285400583099,
          -54.39733911382232
        ]
      }
    },
    {
      "type": "Feature",
      "properties": {
        "norad_id": 33815,
        "name": "COSMOS 2251 DEB",
        "group": "cosmos-2251-debris",
        "lat": 18.624116897352444,
        "lon": -18.376034355680144,
        "alt_km": 508.5336420831036,
        "timestamp": "2025-12-17T04:57:44.753625+00:00",
        "meta_object_name": "COSMOS 2251 DEB",
        "meta_object_id": "1993-036BG",
        "meta_epoch": "2025-12-16T22:27:51.135264",
        "meta_mean_motion": 15.19149492,
        "meta_eccentricity": 0.00015095,
        "meta_inclination": 73.9511,
        "meta_ra_of_asc_node": 167.7607,
        "meta_arg_of_pericenter": 268.4816,
        "meta_mean_anomaly": 211.8574,
        "meta_ephemeris_type": 0,
        "meta_classification_type": "U",
        "meta_norad_cat_id": 33815,
        "meta_element_set_no": 999,
        "meta_rev_at_epoch": 88434,
        "meta_bstar": 0.0053395468,
        "meta_mean_motion_dot": 0.00114015,
        "meta_mean_motion_ddot": 0,
        "tle_line1": "1 33815U 93036BG  25350.93600851  .00114015  00000+0  53395-2 0  9996",
        "tle_line2": "2 33815  73.9511 167.7607 0001509 268.4816 211.8574 15.19149492884342"
      },
      "geometry": {
        "type": "Point",
        "coordinates": [
          -18.376034355680144,
          18.624116897352444
        ]
      }
    },
    {
      "type": "Feature",
      "properties": {
        "norad_id": 33816,
        "name": "COSMOS 2251 DEB",
        "group": "cosmos-2251-debris",
        "lat": -19.14186698388159,
        "lon": 92.06981550000683,
        "alt_km": 1083.1708281871533,
        "timestamp": "2025-12-17T04:57:44.753635+00:00",
        "meta_object_name": "COSMOS 2251 DEB",
        "meta_object_id": "1993-036BH",
        "meta_epoch": "2025-12-16T16:53:54.225312",
        "meta_mean_motion": 13.81788177,
        "meta_eccentricity": 0.02644977,
        "meta_inclination": 73.8952,
        "meta_ra_of_asc_node": 98.6767,
        "meta_arg_of_pericenter": 110.8273,
        "meta_mean_anomaly": 252.1394,
        "meta_ephemeris_type": 0,
        "meta_classification_type": "U",
        "meta_norad_cat_id": 33816,
        "meta_element_set_no": 999,
        "meta_rev_at_epoch": 84728,
        "meta_bstar": 0.00035046923,
        "meta_mean_motion_dot": 4.68e-06,
        "meta_mean_motion_ddot": 0,
        "tle_line1": "1 33816U 93036BH  25350.70409983  .00000468  00000+0  35047-3 0  9996",
        "tle_line2": "2 33816  73.8952  98.6767 0264497 110.8273 252.1394 13.81788177847280"
      },
      "geometry": {
        "type": "Point",
        "coordinates": [
          92.06981550000683,
          -19.14186698388159
        ]
      }
    },
    {
      "type": "Feature",
      "properties": {
        "norad_id": 33818,
        "name": "COSMOS 2251 DEB",
        "group": "cosmos-2251-debris",
        "lat": -45.63473744355689,
        "lon": 140.0337154555181,
        "alt_km": 551.5500370178906,
        "timestamp": "2025-12-17T04:57:44.753644+00:00",
        "meta_object_name": "COSMOS 2251 DEB",
        "meta_object_id": "1993-036BK",
        "meta_epoch": "2025-12-16T21:45:02.668896",
        "meta_mean_motion": 15.1283053,
        "meta_eccentricity": 0.00260813,
        "meta_inclination": 74.0761,
        "meta_ra_of_asc_node": 157.6268,
        "meta_arg_of_pericenter": 144.718,
        "meta_mean_anomaly": 331.4644,
        "meta_ephemeris_type": 0,
        "meta_classification_type": "U",
        "meta_norad_cat_id": 33818,
        "meta_element_set_no": 999,
        "meta_rev_at_epoch": 89925,
        "meta_bstar": 0.0021105814,
        "meta_mean_motion_dot": 0.00037554,
        "meta_mean_motion_ddot": 0,
        "tle_line1": "1 33818U 93036BK  25350.90628089  .00037554  00000+0  21106-2 0  9996",
        "tle_line2": "2 33818  74.0761 157.6268 0026081 144.7180 331.4644 15.12830530899253"
      },
      "geometry": {
        "type": "Point",
        "coordinates": [
          140.0337154555181,
          -45.63473744355689
        ]
      }
    },
    {
      "type": "Feature",
      "properties": {
        "norad_id": 33819,
        "name": "COSMOS 2251 DEB",
        "group": "cosmos-2251-debris",
        "lat": -41.81553711604842,
        "lon": 36.46066477703483,
        "alt_km": 851.2282010280851,
        "timestamp": "2025-12-17T04:57:44.753654+00:00",
        "meta_object_name": "COSMOS 2251 DEB",
        "meta_object_id": "1993-036BL",
        "meta_epoch": "2025-12-16T23:29:24.483840",
        "meta_mean_motion": 14.32238538,
        "meta_eccentricity": 0.00892046,
        "meta_inclination": 74.1783,
        "meta_ra_of_asc_node": 202.178,
        "meta_arg_of_pericenter": 62.2212,
        "meta_mean_anomaly": 66.0735,
        "meta_ephemeris_type": 0,
        "meta_classification_type": "U",
        "meta_norad_cat_id": 33819,
        "meta_element_set_no": 999,
        "meta_rev_at_epoch": 87556,
        "meta_bstar": 0.00048692765,
        "meta_mean_motion_dot": 1.348e-05,
        "meta_mean_motion_ddot": 0,
        "tle_line1": "1 33819U 93036BL  25350.97875560  .00001348  00000+0  48693-3 0  9995",
        "tle_line2": "2 33819  74.1783 202.1780 0089204  62.2212  66.0735 14.32238538875561"
      },
      "geometry": {
        "type": "Point",
        "coordinates": [
          36.46066477703483,
          -41.81553711604842
        ]
      }
    },
    {
      "type": "Feature",
      "properties": {
        "norad_id": 33821,
        "name": "COSMOS 2251 DEB",
        "group": "cosmos-2251-debris",
        "lat": -39.02381883786634,
        "lon": 119.96919414246729,
        "alt_km": 526.4871043730009,
        "timestamp": "2025-12-17T04:57:44.753664+00:00",
        "meta_object_name": "COSMOS 2251 DEB",
        "meta_object_id": "1993-036BN",
        "meta_epoch": "2025-12-16T19:41:59.987616",
        "meta_mean_motion": 15.25567775,
        "meta_eccentricity": 0.00508761,
        "meta_inclination": 74.029,
        "meta_ra_of_asc_node": 134.2069,
        "meta_arg_of_pericenter": 166.2917,
        "meta_mean_anomaly": 193.9679,
        "meta_ephemeris_type": 0,
        "meta_classification_type": "U",
        "meta_norad_cat_id": 33821,
        "meta_element_set_no": 999,
        "meta_rev_at_epoch": 75063,
        "meta_bstar": 0.0010862628,
        "meta_mean_motion_dot": 0.0002869,
        "meta_mean_motion_ddot": 0,
        "tle_line1": "1 33821U 93036BN  25350.82083319  .00028690  00000+0  10863-2 0  9991",
        "tle_line2": "2 33821  74.0290 134.2069 0050876 166.2917 193.9679 15.25567775750639"
      },
      "geometry": {
        "type": "Point",
        "coordinates": [
          119.96919414246729,
          -39.02381883786634
        ]
      }
    }
  ]
}